FLOCK 4G-24             
1 62637U 25009AE  26189.46192727  .00005864  00000+0  20284-3 0  9995
2 62637  97.4017 271.6661 0003003 186.1869 173.9335 15.30277361 82183
FLOCK 4G-3              
1 62639U 25009AG  26188.66799420  .00006440  00000+0  22600-3 0  9996
2 62639  97.4019 270.5886 0002464 192.9704 167.1473 15.29766292 82033
FLOCK 4G-27             
1 62641U 25009AJ  26188.75268269  .00007127  00000+0  25023-3 0  9996
2 62641  97.3926 270.0304 0001811 191.2604 168.8597 15.29712389 82042
FLOCK 4G-29             
1 62642U 25009AK  26189.45783226  .00005662  00000+0  19894-3 0  9991
2 62642  97.4015 271.3353 0002755 186.2861 173.8345 15.29782544 82157
FLOCK 4G-22             
1 62645U 25009AN  26189.47587538  .00006089  00000+0  21437-3 0  9994
2 62645  97.4000 271.3894 0002429 179.3568 180.7676 15.29682474 82176
FLOCK 4G-25             
1 62646U 25009AP  26189.18902897  .00006915  00000+0  24141-3 0  9995
2 62646  97.4008 271.1795 0001765 180.3569 179.7671 15.29909217 82134
FLOCK 4G-23             
1 62647U 25009AQ  26188.72927533  .00027230  00000+0  81926-3 0  9996
2 62647  97.3923 270.4043 0002752 187.1924 172.9279 15.34341441 82072
FLOCK 4G-34             
1 62650U 25009AT  26188.79988235  .00006516  00000+0  22926-3 0  9992
2 62650  97.3956 270.2863 0001664 181.3894 178.7342 15.29676479 82063
FLOCK 4G-21             
1 62651U 25009AU  26188.47211140  .00026346  00000+0  84029-3 0  9997
2 62651  97.3986 270.9260 0002412 213.2925 146.8165 15.32490105 82060
FLOCK 4G-31             
1 62652U 25009AV  26189.48307975  .00006999  00000+0  24745-3 0  9993
2 62652  97.3963 270.9395 0001279 169.0022 191.1246 15.29491863 82163
FLOCK 4G-4              
1 62659U 25009BC  26189.46629892  .00023752  00000+0  77392-3 0  9995
2 62659  97.3942 270.7117 0004106 211.3503 148.7495 15.31819968139760
FLOCK 4G-6              
1 62660U 25009BD  26189.47400462  .00005549  00000+0  19436-3 0  9997
2 62660  97.3935 270.7805 0002279 229.8803 130.2238 15.29891671139752
FLOCK 4G-2              
1 62661U 25009BE  26189.53451637  .00007550  00000+0  26066-3 0  9996
2 62661  97.4003 271.4734 0003114 228.6652 131.4321 15.30238576139798
FLOCK 4G-5              
1 62663U 25009BG  26189.53196687  .00006351  00000+0  21580-3 0  9993
2 62663  97.4021 271.8635 0002841 204.5887 155.5219 15.30825212 82208
FLOCK 4G-1              
1 62666U 25009BK  26188.73402795  .00006871  00000+0  23859-3 0  9995
2 62666  97.4015 270.6552 0003285 229.0976 130.9980 15.30085707 82055
FLOCK 4G-14             
1 62667U 25009BL  26189.22084386  .00006500  00000+0  22897-3 0  9993
2 62667  97.4017 270.9413 0003450 221.1323 138.9657 15.29639869 82118
FLOCK 4G-10             
1 62670U 25009BP  26189.49386924  .00007595  00000+0  26619-3 0  9990
2 62670  97.3917 270.5187 0003100 242.4476 117.6450 15.29742756139793
FLOCK 4G-36             
1 62675U 25009BU  26189.16120584  .00006858  00000+0  24088-3 0  9996
2 62675  97.4006 270.8039 0003578 228.9613 131.1319 15.29710286 82108
FLOCK 4G-15             
1 62678U 25009BX  26189.49560391  .00008185  00000+0  28609-3 0  9997
2 62678  97.4011 271.2783 0003896 223.2943 136.7991 15.29806850139805
FLOCK 4G-30             
1 62679U 25009BY  26189.45609051  .00028488  00000+0  87727-3 0  9995
2 62679  97.3912 270.7302 0003722 218.7502 141.3474 15.33591036139804
FLOCK 4G-18             
1 62680U 25009BZ  26189.46286106  .00025141  00000+0  81749-3 0  9991
2 62680  97.4005 271.1416 0005480 233.8999 126.1735 15.31869046139798
FLOCK 4G-17             
1 62681U 25009CA  26189.26118502  .00006765  00000+0  23567-3 0  9999
2 62681  97.3917 270.5223 0003487 244.9099 115.1780 15.29985222139776
FLOCK 4G-33             
1 62685U 25009CE  26189.17157648  .00003919  00000+0  15642-3 0  9990
2 62685  97.3940 268.8042 0004089 245.5946 114.4866 15.25745031 82000
PELICAN-3               
1 65315U 25188A   26189.47816762  .00005107  00000+0  12603-3 0  9998
2 65315  97.1979 265.3105 0001707 106.5013 253.6422 15.40966649 48597
PELICAN-4               
1 65316U 25188B   26188.71629787  .00005666  00000+0  13977-3 0  9999
2 65316  97.1993 264.7148 0000857 102.7560 257.3783 15.40926275 48473
PELICAN-5               
1 66667U 25276B   26189.44777263  .00003831  00000+0  12747-3 0  9997
2 66667  97.4121 264.4094 0002422 352.7008   7.4198 15.31764598 33779
PELICAN-6               
1 66703U 25276AP  26189.18213586  .00003092  00000+0  10561-3 0  9993
2 66703  97.3784 264.2011 0002267  46.4061 313.7368 15.31064226 33744
FLOCK 4H-1              
1 66704U 25276AQ  26189.43479213  .00004160  00000+0  19183-3 0  9999
2 66704  97.4167 262.7866 0001321 193.9525 166.1674 15.20796195 33661
FLOCK 4H-2              
1 66705U 25276AR  26189.47547577  .00004277  00000+0  19563-3 0  9994
2 66705  97.4165 262.8729 0000923 159.5932 200.5341 15.21066998 33673
FLOCK 4H-3              
1 66706U 25276AS  26189.46162528  .00003826  00000+0  17984-3 0  9997
2 66706  97.4235 262.7868 0002343 289.0849  71.0133 15.20188625 33658
FLOCK 4H-4              
1 66707U 25276AT  26188.77261237  .00004789  00000+0  22568-3 0  9991
2 66707  97.4211 261.9795 0003120 293.8015  66.2893 15.19973136 33549
FLOCK 4H-5              
1 66708U 25276AU  26188.76933910  .00004343  00000+0  19986-3 0  9991
2 66708  97.4165 262.1522 0000916 130.7089 229.4226 15.20846166 33568
FLOCK 4H-6              
1 66709U 25276AV  26188.74804075  .00004621  00000+0  21430-3 0  9995
2 66709  97.4218 262.1732 0001864 241.6684 118.4363 15.20544483 33552
FLOCK 4H-7              
1 66710U 25276AW  26189.45271561  .00003797  00000+0  17782-3 0  9992
2 66710  97.4176 262.6303 0001168 354.6591   5.4632 15.20321133 33655
FLOCK 4H-8              
1 66711U 25276AX  26188.72014331  .00004126  00000+0  19237-3 0  9996
2 66711  97.4215 262.0543 0002052 318.5140  41.5939 15.20423324 33546
FLOCK 4H-9              
1 66712U 25276AY  26189.45921877  .00003990  00000+0  18452-3 0  9996
2 66712  97.4206 262.8743 0001924 248.7604 111.3426 15.20727993 33662
FLOCK 4H-10             
1 66713U 25276AZ  26189.48140620  .00004704  00000+0  22087-3 0  9992
2 66713  97.4182 262.6140 0002900 291.7162  68.3764 15.20104919 33659
FLOCK 4H-11             
1 66714U 25276BA  26189.45460638  .00008287  00000+0  35314-3 0  9991
2 66714  97.4187 263.1480 0001171 296.3511  63.7605 15.23206814 33682
FLOCK 4H-12             
1 66715U 25276BB  26188.72260260  .00004383  00000+0  20224-3 0  9997
2 66715  97.4179 262.0871 0001057 207.4810 152.6370 15.20748833 33860
FLOCK 4H-13             
1 66716U 25276BC  26189.48324128  .00004643  00000+0  21336-3 0  9990
2 66716  97.4214 263.0054 0001433 150.8455 209.2860 15.20857252 33677
FLOCK 4H-14             
1 66717U 25276BD  26189.51145115  .00004315  00000+0  19596-3 0  9993
2 66717  97.4196 263.0769 0001389 145.6148 214.5178 15.21308237 32935
FLOCK 4H-15             
1 66718U 25276BE  26189.44830184  .00003647  00000+0  17337-3 0  9991
2 66718  97.4210 262.5872 0002802 313.1399  46.9601 15.19825597 33640
FLOCK 4H-16             
1 66719U 25276BF  26189.55385264  .00005334  00000+0  25013-3 0  9993
2 66719  97.4228 262.7974 0002751 293.7734  66.3213 15.20094667 33669
FLOCK 4H-18             
1 66721U 25276BH  26189.16478470  .00004261  00000+0  20080-3 0  9992
2 66721  97.4167 262.2340 0002639 332.2746  27.8348 15.20031324 33609
FLOCK 4H-19             
1 66722U 25276BJ  26189.16958091  .00003485  00000+0  15919-3 0  9997
2 66722  97.4169 262.6887 0001809 162.6737 197.4560 15.21232752 32928
FLOCK 4H-20             
1 66723U 25276BK  26188.77781993  .00004044  00000+0  18343-3 0  9995
2 66723  97.4205 262.4034 0002100 192.6017 167.5167 15.21383130 32828
FLOCK 4H-21             
1 66724U 25276BL  26189.46505927  .00004302  00000+0  19728-3 0  9999
2 66724  97.4174 262.9121 0002011 189.2815 170.8384 15.20976508 32920
FLOCK 4H-22             
1 66725U 25276BM  26189.44154531  .00004189  00000+0  19506-3 0  9996
2 66725  97.4163 262.6055 0001450 343.4647  16.6541 15.20460256 33656
FLOCK 4H-23             
1 66726U 25276BN  26189.16402316  .00004202  00000+0  19820-3 0  9998
2 66726  97.4231 262.4151 0002840 284.4357  75.6563 15.20010103 33600
FLOCK 4H-24             
1 66727U 25276BP  26189.47844483  .00004638  00000+0  21774-3 0  9992
2 66727  97.4229 262.7531 0002444 307.3242  52.7770 15.20121356 33655
FLOCK 4H-25             
1 66728U 25276BQ  26189.48315519  .00004165  00000+0  19157-3 0  9994
2 66728  97.4185 262.9211 0001538 130.4507 229.6863 15.20889712 32953
FLOCK 4H-26             
1 66729U 25276BR  26189.51065690  .00004234  00000+0  20061-3 0  9994
2 66729  97.4183 262.5734 0003269 300.9335  59.1579 15.19846307 33653
FLOCK 4H-27             
1 66730U 25276BS  26189.51299370  .00004345  00000+0  20075-3 0  9998
2 66730  97.4159 262.8076 0001251 124.5076 235.6278 15.20712492 33679
FLOCK 4H-29             
1 66732U 25276BU  26189.55663453  .00005017  00000+0  23616-3 0  9992
2 66732  97.4160 262.6014 0001969 326.7640  33.3471 15.19986522 33664
FLOCK 4H-30             
1 66733U 25276BV  26188.75915096  .00005015  00000+0  23531-3 0  9991
2 66733  97.4221 262.0176 0002777 307.6423  52.4560 15.20102778 33544
FLOCK 4H-31             
1 66734U 25276BW  26189.43740332  .00003893  00000+0  18455-3 0  9998
2 66734  97.4159 262.4525 0002316 319.8354  40.2709 15.19885521 33647
FLOCK 4H-32             
1 66735U 25276BX  26189.16251557  .00004154  00000+0  19602-3 0  9991
2 66735  97.4213 262.3720 0003078 300.8848  59.2084 15.20002196 33602
FLOCK 4H-33             
1 66736U 25276BY  26189.45481137  .00003912  00000+0  17883-3 0  9993
2 66736  97.4211 263.0416 0002136 179.7814 180.3423 15.21136931 33677
FLOCK 4H-34             
1 66737U 25276BZ  26189.50601010  .00004869  00000+0  22413-3 0  9991
2 66737  97.4226 263.0175 0001856 190.0363 170.0835 15.20779015 32924
FLOCK 4H-35             
1 66738U 25276CA  26189.48226822  .00004354  00000+0  20006-3 0  9998
2 66738  97.4188 262.9342 0001990 167.4795 192.6490 15.20896278 32964
